SL-3 R/B                
1 13403U 82079B   25363.49262868  .00009381  00000+0  38464-3 0  9999
2 13403  81.1474 275.9120 0026604  45.2949 315.0443 15.23802008367000
SL-14 R/B               
1 13553U 82092B   25363.11585931  .00000692  00000+0  75117-4 0  9991
2 13553  82.5668 207.3961 0020512 171.2340 311.1193 14.86572386318449
SL-3 R/B                
1 13819U 83010B   25363.30131394  .00020696  00000+0  45167-3 0  9995
2 13819  81.1043  88.3968 0016399 291.9368  68.0132 15.43939570347076
SL-3 R/B                
1 14208U 83075B   25363.52657956  .00015752  00000+0  43998-3 0  9997
2 14208  97.6112   0.5782 0024324 118.0524 242.3183 15.36499861319379
COSMOS 1536             
1 14699U 84013A   25363.49888059  .00010702  00000+0  45599-3 0  9999
2 14699  82.5447 177.5410 0014887 164.8500 195.3186 15.22729220261934
SL-14 R/B               
1 14820U 84027B   25363.32363302  .00000772  00000+0  85687-4 0  9990
2 14820  82.5426 311.0042 0017267 201.8748 158.1733 14.85893601237182
SL-8 R/B                
1 15483U 85006B   25363.45972713  .00000427  00000+0  15053-3 0  9996
2 15483  74.0459  30.3719 0019394 319.3472 146.3698 14.37732412143931
SL-12 R/B(2)            
1 15772U 85042D   25363.07518362  .00000165  00000+0  95549-4 0  9999
2 15772  71.1065 236.9104 0037166 237.5035 228.2750 14.21956807104359
SL-14 R/B               
1 15945U 85069B   25363.19519988  .00000762  00000+0  83384-4 0  9995
2 15945  82.5272  91.2337 0020209  67.9091 292.4269 14.86344446162368
SL-16 R/B               
1 16182U 85097B   25363.24204081 -.00000140  00000+0 -45920-4 0  9997
2 16182  71.0030 288.8615 0007695 345.5580 124.6674 14.16586628 77254
SL-14 R/B               
1 16496U 86006B   25363.32455876  .00000902  00000+0  93114-4 0  9997
2 16496  82.5276 325.9458 0077604 144.9464 215.6897 14.86694005138755
COSMOS 1743             
1 16719U 86034A   25363.47573890  .00046938  00000+0  74384-3 0  9995
2 16719  82.5348 147.1961 0005062 185.3799 174.7400 15.53192015169337
