CCSDS_OMM_VERS = 2.0
CREATION_DATE  = 
ORIGINATOR     = 

OBJECT_NAME    = SL-3 R/B
OBJECT_ID      = 1982-079B
CENTER_NAME    = EARTH
REF_FRAME      = TEME
TIME_SYSTEM    = UTC
MEAN_ELEMENT_THEORY = SGP/SGP4

EPOCH          = 2025-12-29T11:49:23.117952
MEAN_MOTION    = 15.23802008
ECCENTRICITY   = .0026604
INCLINATION    = 81.1474
RA_OF_ASC_NODE = 275.9120
ARG_OF_PERICENTER = 45.2949
MEAN_ANOMALY   = 315.0443

EPHEMERIS_TYPE = 0
CLASSIFICATION_TYPE = U
NORAD_CAT_ID   = 13403
ELEMENT_SET_NO = 999
REV_AT_EPOCH   = 36700
BSTAR          = .38464E-3
MEAN_MOTION_DOT = .9381E-4
MEAN_MOTION_DDOT = 0

CCSDS_OMM_VERS = 2.0
CREATION_DATE  = 
ORIGINATOR     = 

OBJECT_NAME    = SL-14 R/B
OBJECT_ID      = 1982-092B
CENTER_NAME    = EARTH
REF_FRAME      = TEME
TIME_SYSTEM    = UTC
MEAN_ELEMENT_THEORY = SGP/SGP4

EPOCH          = 2025-12-29T02:46:50.244384
MEAN_MOTION    = 14.86572386
ECCENTRICITY   = .00205129
INCLINATION    = 82.5668
RA_OF_ASC_NODE = 207.3961
ARG_OF_PERICENTER = 171.2340
MEAN_ANOMALY   = 311.1193

EPHEMERIS_TYPE = 0
CLASSIFICATION_TYPE = U
NORAD_CAT_ID   = 13553
ELEMENT_SET_NO = 999
REV_AT_EPOCH   = 31844
BSTAR          = .75116971E-4
MEAN_MOTION_DOT = .692E-5
MEAN_MOTION_DDOT = 0

CCSDS_OMM_VERS = 2.0
CREATION_DATE  = 
ORIGINATOR     = 

OBJECT_NAME    = SL-3 R/B
OBJECT_ID      = 1983-010B
CENTER_NAME    = EARTH
REF_FRAME      = TEME
TIME_SYSTEM    = UTC
MEAN_ELEMENT_THEORY = SGP/SGP4

EPOCH          = 2025-12-29T07:13:53.524416
MEAN_MOTION    = 15.43939570
ECCENTRICITY   = .0016399
INCLINATION    = 81.1043
RA_OF_ASC_NODE = 88.3968
ARG_OF_PERICENTER = 291.9368
MEAN_ANOMALY   = 68.0132

EPHEMERIS_TYPE = 0
CLASSIFICATION_TYPE = U
NORAD_CAT_ID   = 13819
ELEMENT_SET_NO = 999
REV_AT_EPOCH   = 34707
BSTAR          = .45167E-3
MEAN_MOTION_DOT = .20696E-3
MEAN_MOTION_DDOT = 0

CCSDS_OMM_VERS = 2.0
CREATION_DATE  = 
ORIGINATOR     = 

OBJECT_NAME    = SL-3 R/B
OBJECT_ID      = 1983-075B
CENTER_NAME    = EARTH
REF_FRAME      = TEME
TIME_SYSTEM    = UTC
MEAN_ELEMENT_THEORY = SGP/SGP4

EPOCH          = 2025-12-29T12:38:16.473984
MEAN_MOTION    = 15.36499861
ECCENTRICITY   = .0024324
INCLINATION    = 97.6112
RA_OF_ASC_NODE = 0.5782
ARG_OF_PERICENTER = 118.0524
MEAN_ANOMALY   = 242.3183

EPHEMERIS_TYPE = 0
CLASSIFICATION_TYPE = U
NORAD_CAT_ID   = 14208
ELEMENT_SET_NO = 999
REV_AT_EPOCH   = 31937
BSTAR          = .43998E-3
MEAN_MOTION_DOT = .15752E-3
MEAN_MOTION_DDOT = 0

CCSDS_OMM_VERS = 2.0
CREATION_DATE  = 
ORIGINATOR     = 

OBJECT_NAME    = COSMOS 1536
OBJECT_ID      = 1984-013A
CENTER_NAME    = EARTH
REF_FRAME      = TEME
TIME_SYSTEM    = UTC
MEAN_ELEMENT_THEORY = SGP/SGP4

EPOCH          = 2025-12-29T11:58:23.282976
MEAN_MOTION    = 15.22729220
ECCENTRICITY   = .0014887
INCLINATION    = 82.5447
RA_OF_ASC_NODE = 177.5410
ARG_OF_PERICENTER = 164.8500
MEAN_ANOMALY   = 195.3186

EPHEMERIS_TYPE = 0
CLASSIFICATION_TYPE = U
NORAD_CAT_ID   = 14699
ELEMENT_SET_NO = 999
REV_AT_EPOCH   = 26193
BSTAR          = .45599E-3
MEAN_MOTION_DOT = .10702E-3
MEAN_MOTION_DDOT = 0

CCSDS_OMM_VERS = 2.0
CREATION_DATE  = 
ORIGINATOR     = 

OBJECT_NAME    = SL-14 R/B
OBJECT_ID      = 1984-027B
CENTER_NAME    = EARTH
REF_FRAME      = TEME
TIME_SYSTEM    = UTC
MEAN_ELEMENT_THEORY = SGP/SGP4

EPOCH          = 2025-12-29T07:46:01.892928
MEAN_MOTION    = 14.85893601
ECCENTRICITY   = .0017267
INCLINATION    = 82.5426
RA_OF_ASC_NODE = 311.0042
ARG_OF_PERICENTER = 201.8748
MEAN_ANOMALY   = 158.1733

EPHEMERIS_TYPE = 0
CLASSIFICATION_TYPE = U
NORAD_CAT_ID   = 14820
ELEMENT_SET_NO = 999
REV_AT_EPOCH   = 23718
BSTAR          = .85687E-4
MEAN_MOTION_DOT = .772E-5
MEAN_MOTION_DDOT = 0

CCSDS_OMM_VERS = 2.0
CREATION_DATE  = 
ORIGINATOR     = 

OBJECT_NAME    = SL-8 R/B
OBJECT_ID      = 1985-006B
CENTER_NAME    = EARTH
REF_FRAME      = TEME
TIME_SYSTEM    = UTC
MEAN_ELEMENT_THEORY = SGP/SGP4

EPOCH          = 2025-12-29T11:02:00.424032
MEAN_MOTION    = 14.37732412
ECCENTRICITY   = .0019394
INCLINATION    = 74.0459
RA_OF_ASC_NODE = 30.3719
ARG_OF_PERICENTER = 319.3472
MEAN_ANOMALY   = 146.3698

EPHEMERIS_TYPE = 0
CLASSIFICATION_TYPE = U
NORAD_CAT_ID   = 15483
ELEMENT_SET_NO = 999
REV_AT_EPOCH   = 14393
BSTAR          = .15053E-3
MEAN_MOTION_DOT = .427E-5
MEAN_MOTION_DDOT = 0

CCSDS_OMM_VERS = 2.0
CREATION_DATE  = 
ORIGINATOR     = 

OBJECT_NAME    = SL-12 R/B(2)
OBJECT_ID      = 1985-042D
CENTER_NAME    = EARTH
REF_FRAME      = TEME
TIME_SYSTEM    = UTC
MEAN_ELEMENT_THEORY = SGP/SGP4

EPOCH          = 2025-12-29T01:48:15.864768
MEAN_MOTION    = 14.21956807
ECCENTRICITY   = .00371664
INCLINATION    = 71.1065
RA_OF_ASC_NODE = 236.9104
ARG_OF_PERICENTER = 237.5035
MEAN_ANOMALY   = 228.2750

EPHEMERIS_TYPE = 0
CLASSIFICATION_TYPE = U
NORAD_CAT_ID   = 15772
ELEMENT_SET_NO = 999
REV_AT_EPOCH   = 10435
BSTAR          = .95549152E-4
MEAN_MOTION_DOT = .165E-5
MEAN_MOTION_DDOT = 0

CCSDS_OMM_VERS = 2.0
CREATION_DATE  = 
ORIGINATOR     = 

OBJECT_NAME    = SL-14 R/B
OBJECT_ID      = 1985-069B
CENTER_NAME    = EARTH
REF_FRAME      = TEME
TIME_SYSTEM    = UTC
MEAN_ELEMENT_THEORY = SGP/SGP4

EPOCH          = 2025-12-29T04:41:05.269632
MEAN_MOTION    = 14.86344446
ECCENTRICITY   = .0020209
INCLINATION    = 82.5272
RA_OF_ASC_NODE = 91.2337
ARG_OF_PERICENTER = 67.9091
MEAN_ANOMALY   = 292.4269

EPHEMERIS_TYPE = 0
CLASSIFICATION_TYPE = U
NORAD_CAT_ID   = 15945
ELEMENT_SET_NO = 999
REV_AT_EPOCH   = 16236
BSTAR          = .83384E-4
MEAN_MOTION_DOT = .762E-5
MEAN_MOTION_DDOT = 0

CCSDS_OMM_VERS = 2.0
CREATION_DATE  = 
ORIGINATOR     = 

OBJECT_NAME    = SL-16 R/B
OBJECT_ID      = 1985-097B
CENTER_NAME    = EARTH
REF_FRAME      = TEME
TIME_SYSTEM    = UTC
MEAN_ELEMENT_THEORY = SGP/SGP4

EPOCH          = 2025-12-29T05:48:32.325984
MEAN_MOTION    = 14.16586628
ECCENTRICITY   = .0007695
INCLINATION    = 71.0030
RA_OF_ASC_NODE = 288.8615
ARG_OF_PERICENTER = 345.5580
MEAN_ANOMALY   = 124.6674

EPHEMERIS_TYPE = 0
CLASSIFICATION_TYPE = U
NORAD_CAT_ID   = 16182
ELEMENT_SET_NO = 999
REV_AT_EPOCH   = 7725
BSTAR          = -.4592E-4
MEAN_MOTION_DOT = -.14E-5
MEAN_MOTION_DDOT = 0

CCSDS_OMM_VERS = 2.0
CREATION_DATE  = 
ORIGINATOR     = 

OBJECT_NAME    = SL-14 R/B
OBJECT_ID      = 1986-006B
CENTER_NAME    = EARTH
REF_FRAME      = TEME
TIME_SYSTEM    = UTC
MEAN_ELEMENT_THEORY = SGP/SGP4

EPOCH          = 2025-12-29T07:47:21.876864
MEAN_MOTION    = 14.86694005
ECCENTRICITY   = .0077604
INCLINATION    = 82.5276
RA_OF_ASC_NODE = 325.9458
ARG_OF_PERICENTER = 144.9464
MEAN_ANOMALY   = 215.6897

EPHEMERIS_TYPE = 0
CLASSIFICATION_TYPE = U
NORAD_CAT_ID   = 16496
ELEMENT_SET_NO = 999
REV_AT_EPOCH   = 13875
BSTAR          = .93114E-4
MEAN_MOTION_DOT = .902E-5
MEAN_MOTION_DDOT = 0

CCSDS_OMM_VERS = 2.0
CREATION_DATE  = 
ORIGINATOR     = 

OBJECT_NAME    = COSMOS 1743
OBJECT_ID      = 1986-034A
CENTER_NAME    = EARTH
REF_FRAME      = TEME
TIME_SYSTEM    = UTC
MEAN_ELEMENT_THEORY = SGP/SGP4

EPOCH          = 2025-12-29T11:25:03.840960
MEAN_MOTION    = 15.53192015
ECCENTRICITY   = .0005062
INCLINATION    = 82.5348
RA_OF_ASC_NODE = 147.1961
ARG_OF_PERICENTER = 185.3799
MEAN_ANOMALY   = 174.7400

EPHEMERIS_TYPE = 0
CLASSIFICATION_TYPE = U
NORAD_CAT_ID   = 16719
ELEMENT_SET_NO = 999
REV_AT_EPOCH   = 16933
BSTAR          = .74384E-3
MEAN_MOTION_DOT = .46938E-3
MEAN_MOTION_DDOT = 0

